STARLINK-1627_new
1 16168C 20057BD  21326.14982958 -.00009186  00000-0 -61557-3 0  3266
2 16168  53.0527 108.0660 0001249  91.6843  33.7453 15.06402458    18
STARLINK-1627_old
1 26168C 20057BD  21325.15385382  .00001454  00000-0  97381-4 0  3256
2 26168  53.0523 112.5372 0001382  93.5704  27.6097 15.06407553    16
